{
    "links": {
        "self": "http://www.neowsapp.com/rest/v1/neo/3279866?api_key=iIulBulltgU6a56xZRHN4H3l9WmuAYTsLGpBGhQ2"
    },
    "id": "3279866",
    "neo_reference_id": "3279866",
    "name": "(2005 MA)",
    "designation": "2005 MA",
    "nasa_jpl_url": "http://ssd.jpl.nasa.gov/sbdb.cgi?sstr=3279866",
    "absolute_magnitude_h": 26.9,
    "estimated_diameter": {
        "kilometers": {
            "estimated_diameter_min": 0.0110803882,
            "estimated_diameter_max": 0.0247765013
        },
        "meters": {
            "estimated_diameter_min": 11.0803882126,
            "estimated_diameter_max": 24.7765012606
        },
        "miles": {
            "estimated_diameter_min": 0.0068850319,
            "estimated_diameter_max": 0.0153953994
        },
        "feet": {
            "estimated_diameter_min": 36.3529808636,
            "estimated_diameter_max": 81.2877363957
        }
    },
    "is_potentially_hazardous_asteroid": false,
    "close_approach_data": [
        {
            "close_approach_date": "1999-11-05",
            "close_approach_date_full": "1999-Nov-05 01:58",
            "epoch_date_close_approach": 941767080000,
            "relative_velocity": {
                "kilometers_per_second": "23.7511061052",
                "kilometers_per_hour": "85503.9819786754",
                "miles_per_hour": "53128.8492466941"
            },
            "miss_distance": {
                "astronomical": "0.3475241236",
                "lunar": "135.1868840804",
                "kilometers": "51988868.664176732",
                "miles": "32304385.0136816216"
            },
            "orbiting_body": "Earth"
        },
        {
            "close_approach_date": "2005-06-21",
            "close_approach_date_full": "2005-Jun-21 04:33",
            "epoch_date_close_approach": 1119328380000,
            "relative_velocity": {
                "kilometers_per_second": "13.3998844156",
                "kilometers_per_hour": "48239.5838961647",
                "miles_per_hour": "29974.2014492585"
            },
            "miss_distance": {
                "astronomical": "0.0046237855",
                "lunar": "1.7986525595",
                "kilometers": "691708.462136885",
                "miles": "429807.707923613"
            },
            "orbiting_body": "Moon"
        },
        {
            "close_approach_date": "2005-06-21",
            "close_approach_date_full": "2005-Jun-21 11:34",
            "epoch_date_close_approach": 1119353640000,
            "relative_velocity": {
                "kilometers_per_second": "13.5198898757",
                "kilometers_per_hour": "48671.6035526485",
                "miles_per_hour": "30242.6416630332"
            },
            "miss_distance": {
                "astronomical": "0.0048642615",
                "lunar": "1.8921977235",
                "kilometers": "727683.159523005",
                "miles": "452161.348327269"
            },
            "orbiting_body": "Earth"
        }
    ],
    "orbital_data": {
        "orbit_id": "11",
        "orbit_determination_date": "2017-04-06 09:10:51",
        "first_observation_date": "2005-06-16",
        "last_observation_date": "2005-06-21",
        "data_arc_in_days": 5,
        "observations_used": 39,
        "orbit_uncertainty": "7",
        "minimum_orbit_intersection": ".00524063",
        "jupiter_tisserand_invariant": "3.573",
        "epoch_osculation": "2459000.5",
        "eccentricity": ".5804522299757532",
        "semi_major_axis": "2.035693238777643",
        "inclination": "2.93868968619272",
        "ascending_node_longitude": "264.9672880394628",
        "orbital_period": "1060.881627190691",
        "perihelion_distance": ".8540705587825969",
        "perihelion_argument": "61.42847715854998",
        "aphelion_distance": "3.21731591877269",
        "perihelion_time": "2458886.414282707640",
        "mean_anomaly": "38.71389340016069",
        "mean_motion": ".3393404040310434",
        "equinox": "J2000",
        "orbit_class": {
            "orbit_class_type": "APO",
            "orbit_class_description": "Near-Earth asteroid orbits which cross the Earth’s orbit similar to that of 1862 Apollo",
            "orbit_class_range": "a (semi-major axis) > 1.0 AU; q (perihelion) < 1.017 AU"
        }
    },
    "is_sentry_object": false
}